CCSDS_OMM_VERS = 2.0
CREATION_DATE  = 
ORIGINATOR     = 

OBJECT_NAME    = STARLINK-36435
OBJECT_ID      = 2026-016H
CENTER_NAME    = EARTH
REF_FRAME      = TEME
TIME_SYSTEM    = UTC
MEAN_ELEMENT_THEORY = SGP/SGP4

EPOCH          = 2026-02-18T18:09:37.258272
MEAN_MOTION    = 15.80793436
ECCENTRICITY   = .0002282
INCLINATION    = 97.2832
RA_OF_ASC_NODE = 109.3175
ARG_OF_PERICENTER = 40.0603
MEAN_ANOMALY   = 320.0833

EPHEMERIS_TYPE = 0
CLASSIFICATION_TYPE = U
NORAD_CAT_ID   = 67568
ELEMENT_SET_NO = 999
REV_AT_EPOCH   = 382
BSTAR          = .12968E-2
MEAN_MOTION_DOT = .255416E-2
MEAN_MOTION_DDOT = 0

CCSDS_OMM_VERS = 2.0
CREATION_DATE  = 
ORIGINATOR     = 

OBJECT_NAME    = STARLINK-36575
OBJECT_ID      = 2026-016J
CENTER_NAME    = EARTH
REF_FRAME      = TEME
TIME_SYSTEM    = UTC
MEAN_ELEMENT_THEORY = SGP/SGP4

EPOCH          = 2026-02-18T16:36:44.193024
MEAN_MOTION    = 15.80900785
ECCENTRICITY   = .0001246
INCLINATION    = 97.2827
RA_OF_ASC_NODE = 109.2560
ARG_OF_PERICENTER = 111.4385
MEAN_ANOMALY   = 248.7016

EPHEMERIS_TYPE = 0
CLASSIFICATION_TYPE = U
NORAD_CAT_ID   = 67569
ELEMENT_SET_NO = 999
REV_AT_EPOCH   = 381
BSTAR          = .14746E-2
MEAN_MOTION_DOT = .293148E-2
MEAN_MOTION_DDOT = 0

CCSDS_OMM_VERS = 2.0
CREATION_DATE  = 
ORIGINATOR     = 

OBJECT_NAME    = STARLINK-36562
OBJECT_ID      = 2026-016K
CENTER_NAME    = EARTH
REF_FRAME      = TEME
TIME_SYSTEM    = UTC
MEAN_ELEMENT_THEORY = SGP/SGP4

EPOCH          = 2026-02-18T18:06:34.416000
MEAN_MOTION    = 15.80893184
ECCENTRICITY   = .0001216
INCLINATION    = 97.2826
RA_OF_ASC_NODE = 109.3240
ARG_OF_PERICENTER = 116.2226
MEAN_ANOMALY   = 243.9167

EPHEMERIS_TYPE = 0
CLASSIFICATION_TYPE = U
NORAD_CAT_ID   = 67570
ELEMENT_SET_NO = 999
REV_AT_EPOCH   = 382
BSTAR          = .14707E-2
MEAN_MOTION_DOT = .292242E-2
MEAN_MOTION_DDOT = 0

CCSDS_OMM_VERS = 2.0
CREATION_DATE  = 
ORIGINATOR     = 

OBJECT_NAME    = STARLINK-36578
OBJECT_ID      = 2026-016L
CENTER_NAME    = EARTH
REF_FRAME      = TEME
TIME_SYSTEM    = UTC
MEAN_ELEMENT_THEORY = SGP/SGP4

EPOCH          = 2026-02-18T17:21:47.619648
MEAN_MOTION    = 15.75217511
ECCENTRICITY   = .0001017
INCLINATION    = 97.2838
RA_OF_ASC_NODE = 109.2107
ARG_OF_PERICENTER = 103.6430
MEAN_ANOMALY   = 256.4948

EPHEMERIS_TYPE = 0
CLASSIFICATION_TYPE = U
NORAD_CAT_ID   = 67571
ELEMENT_SET_NO = 999
REV_AT_EPOCH   = 381
BSTAR          = .8141E-3
MEAN_MOTION_DOT = .123211E-2
MEAN_MOTION_DDOT = 0

CCSDS_OMM_VERS = 2.0
CREATION_DATE  = 
ORIGINATOR     = 

OBJECT_NAME    = STARLINK-36350
OBJECT_ID      = 2026-016M
CENTER_NAME    = EARTH
REF_FRAME      = TEME
TIME_SYSTEM    = UTC
MEAN_ELEMENT_THEORY = SGP/SGP4

EPOCH          = 2026-02-18T21:45:02.976480
MEAN_MOTION    = 15.75272363
ECCENTRICITY   = .0001402
INCLINATION    = 97.2840
RA_OF_ASC_NODE = 109.4195
ARG_OF_PERICENTER = 63.2626
MEAN_ANOMALY   = 296.8782

EPHEMERIS_TYPE = 0
CLASSIFICATION_TYPE = U
NORAD_CAT_ID   = 67572
ELEMENT_SET_NO = 999
REV_AT_EPOCH   = 384
BSTAR          = .13973E-2
MEAN_MOTION_DOT = .214361E-2
MEAN_MOTION_DDOT = 0

CCSDS_OMM_VERS = 2.0
CREATION_DATE  = 
ORIGINATOR     = 

OBJECT_NAME    = STARLINK-36588
OBJECT_ID      = 2026-016N
CENTER_NAME    = EARTH
REF_FRAME      = TEME
TIME_SYSTEM    = UTC
MEAN_ELEMENT_THEORY = SGP/SGP4

EPOCH          = 2026-02-18T21:48:05.796288
MEAN_MOTION    = 15.75278903
ECCENTRICITY   = .0001002
INCLINATION    = 97.2837
RA_OF_ASC_NODE = 109.4178
ARG_OF_PERICENTER = 107.3361
MEAN_ANOMALY   = 252.8014

EPHEMERIS_TYPE = 0
CLASSIFICATION_TYPE = U
NORAD_CAT_ID   = 67573
ELEMENT_SET_NO = 999
REV_AT_EPOCH   = 384
BSTAR          = .14538E-2
MEAN_MOTION_DOT = .22334E-2
MEAN_MOTION_DDOT = 0

CCSDS_OMM_VERS = 2.0
CREATION_DATE  = 
ORIGINATOR     = 

OBJECT_NAME    = STARLINK-36594
OBJECT_ID      = 2026-016P
CENTER_NAME    = EARTH
REF_FRAME      = TEME
TIME_SYSTEM    = UTC
MEAN_ELEMENT_THEORY = SGP/SGP4

EPOCH          = 2026-02-18T17:59:47.077152
MEAN_MOTION    = 15.80871887
ECCENTRICITY   = .0002078
INCLINATION    = 97.2826
RA_OF_ASC_NODE = 109.3278
ARG_OF_PERICENTER = 166.7090
MEAN_ANOMALY   = 193.4234

EPHEMERIS_TYPE = 0
CLASSIFICATION_TYPE = U
NORAD_CAT_ID   = 67574
ELEMENT_SET_NO = 999
REV_AT_EPOCH   = 382
BSTAR          = .13556E-2
MEAN_MOTION_DOT = .268354E-2
MEAN_MOTION_DDOT = 0

CCSDS_OMM_VERS = 2.0
CREATION_DATE  = 
ORIGINATOR     = 

OBJECT_NAME    = STARLINK-36400
OBJECT_ID      = 2026-016Q
CENTER_NAME    = EARTH
REF_FRAME      = TEME
TIME_SYSTEM    = UTC
MEAN_ELEMENT_THEORY = SGP/SGP4

EPOCH          = 2026-02-18T20:00:01.999008
MEAN_MOTION    = 15.75270277
ECCENTRICITY   = .0001773
INCLINATION    = 97.2852
RA_OF_ASC_NODE = 109.3830
ARG_OF_PERICENTER = 64.1422
MEAN_ANOMALY   = 330.6988

EPHEMERIS_TYPE = 0
CLASSIFICATION_TYPE = U
NORAD_CAT_ID   = 67575
ELEMENT_SET_NO = 999
REV_AT_EPOCH   = 496
BSTAR          = -.10828E-2
MEAN_MOTION_DOT = -.159225E-2
MEAN_MOTION_DDOT = 0

CCSDS_OMM_VERS = 2.0
CREATION_DATE  = 
ORIGINATOR     = 

OBJECT_NAME    = STARLINK-36591
OBJECT_ID      = 2026-016R
CENTER_NAME    = EARTH
REF_FRAME      = TEME
TIME_SYSTEM    = UTC
MEAN_ELEMENT_THEORY = SGP/SGP4

EPOCH          = 2026-02-18T20:00:01.999008
MEAN_MOTION    = 15.75280133
ECCENTRICITY   = .0001142
INCLINATION    = 97.2838
RA_OF_ASC_NODE = 109.4114
ARG_OF_PERICENTER = 89.0331
MEAN_ANOMALY   = 13.7893

EPHEMERIS_TYPE = 0
CLASSIFICATION_TYPE = U
NORAD_CAT_ID   = 67576
ELEMENT_SET_NO = 999
REV_AT_EPOCH   = 501
BSTAR          = -.14279E-2
MEAN_MOTION_DOT = -.208802E-2
MEAN_MOTION_DDOT = 0

CCSDS_OMM_VERS = 2.0
CREATION_DATE  = 
ORIGINATOR     = 

OBJECT_NAME    = STARLINK-36590
OBJECT_ID      = 2026-016S
CENTER_NAME    = EARTH
REF_FRAME      = TEME
TIME_SYSTEM    = UTC
MEAN_ELEMENT_THEORY = SGP/SGP4

EPOCH          = 2026-02-18T21:28:16.719744
MEAN_MOTION    = 15.75279907
ECCENTRICITY   = .0001174
INCLINATION    = 97.2842
RA_OF_ASC_NODE = 109.4361
ARG_OF_PERICENTER = 84.5324
MEAN_ANOMALY   = 275.6075

EPHEMERIS_TYPE = 0
CLASSIFICATION_TYPE = U
NORAD_CAT_ID   = 67577
ELEMENT_SET_NO = 999
REV_AT_EPOCH   = 384
BSTAR          = .13873E-2
MEAN_MOTION_DOT = .212863E-2
MEAN_MOTION_DDOT = 0

CCSDS_OMM_VERS = 2.0
CREATION_DATE  = 
ORIGINATOR     = 

OBJECT_NAME    = STARLINK-36613
OBJECT_ID      = 2026-016T
CENTER_NAME    = EARTH
REF_FRAME      = TEME
TIME_SYSTEM    = UTC
MEAN_ELEMENT_THEORY = SGP/SGP4

EPOCH          = 2026-02-18T17:53:50.122464
MEAN_MOTION    = 15.80872512
ECCENTRICITY   = .000164
INCLINATION    = 97.2826
RA_OF_ASC_NODE = 109.3331
ARG_OF_PERICENTER = 149.0204
MEAN_ANOMALY   = 211.1161

EPHEMERIS_TYPE = 0
CLASSIFICATION_TYPE = U
NORAD_CAT_ID   = 67578
ELEMENT_SET_NO = 999
REV_AT_EPOCH   = 382
BSTAR          = .11984E-2
MEAN_MOTION_DOT = .236352E-2
MEAN_MOTION_DDOT = 0

CCSDS_OMM_VERS = 2.0
CREATION_DATE  = 
ORIGINATOR     = 

OBJECT_NAME    = STARLINK-36571
OBJECT_ID      = 2026-016U
CENTER_NAME    = EARTH
REF_FRAME      = TEME
TIME_SYSTEM    = UTC
MEAN_ELEMENT_THEORY = SGP/SGP4

EPOCH          = 2026-02-18T07:50:33.249408
MEAN_MOTION    = 15.75291173
ECCENTRICITY   = .00014607
INCLINATION    = 97.2833
RA_OF_ASC_NODE = 108.8317
ARG_OF_PERICENTER = 101.4728
MEAN_ANOMALY   = 258.6702

EPHEMERIS_TYPE = 0
CLASSIFICATION_TYPE = U
NORAD_CAT_ID   = 67579
ELEMENT_SET_NO = 999
REV_AT_EPOCH   = 375
BSTAR          = .17518648E-2
MEAN_MOTION_DOT = .270812E-2
MEAN_MOTION_DDOT = 0

