STARLINK-36435          
1 67568U 26016H   26049.75668123  .00255416  00000+0  12968-2 0  9996
2 67568  97.2832 109.3175 0002282  40.0603 320.0833 15.80793436  3826
STARLINK-36575          
1 67569U 26016J   26049.69217816  .00293148  00000+0  14746-2 0  9999
2 67569  97.2827 109.2560 0001246 111.4385 248.7016 15.80900785  3812
STARLINK-36562          
1 67570U 26016K   26049.75456500  .00292242  00000+0  14707-2 0  9994
2 67570  97.2826 109.3240 0001216 116.2226 243.9167 15.80893184  3822
STARLINK-36578          
1 67571U 26016L   26049.72346782  .00123211  00000+0  81410-3 0  9997
2 67571  97.2838 109.2107 0001017 103.6430 256.4948 15.75217511  3816
STARLINK-36350          
1 67572U 26016M   26049.90628445  .00214361  00000+0  13973-2 0  9992
2 67572  97.2840 109.4195 0001402  63.2626 296.8782 15.75272363  3848
STARLINK-36588          
1 67573U 26016N   26049.90840042  .00223340  00000+0  14538-2 0  9997
2 67573  97.2837 109.4178 0001002 107.3361 252.8014 15.75278903  3844
STARLINK-36594          
1 67574U 26016P   26049.74985043  .00268354  00000+0  13556-2 0  9994
2 67574  97.2826 109.3278 0002078 166.7090 193.4234 15.80871887  3823
STARLINK-36400          
1 67575U 26016Q   26049.83335647 -.00159225  00000+0 -10828-2 0  9991
2 67575  97.2852 109.3830 0001773  64.1422 330.6988 15.75270277  4965
STARLINK-36591          
1 67576U 26016R   26049.83335647 -.00208802  00000+0 -14279-2 0  9992
2 67576  97.2838 109.4114 0001142  89.0331  13.7893 15.75280133  5014
STARLINK-36590          
1 67577U 26016S   26049.89463796  .00212863  00000+0  13873-2 0  9995
2 67577  97.2842 109.4361 0001174  84.5324 275.6075 15.75279907  3848
STARLINK-36613          
1 67578U 26016T   26049.74571901  .00236352  00000+0  11984-2 0  9998
2 67578  97.2826 109.3331 0001640 149.0204 211.1161 15.80872512  3825
STARLINK-36571          
1 67579U 26016U   26049.32677372  .00270812  00000+0  17519-2 0  9991
2 67579  97.2833 108.8317 0001460 101.4728 258.6702 15.75291173  3756
